OBJECT_NAME,OBJECT_ID,EPOCH,MEAN_MOTION,ECCENTRICITY,INCLINATION,RA_OF_ASC_NODE,ARG_OF_PERICENTER,MEAN_ANOMALY,EPHEMERIS_TYPE,CLASSIFICATION_TYPE,NORAD_CAT_ID,ELEMENT_SET_NO,REV_AT_EPOCH,BSTAR,MEAN_MOTION_DOT,MEAN_MOTION_DDOT
NETSAT-2,2020-068X,2026-06-05T12:18:07.852896,15.45478514,.0004962,97.8622,163.6717,58.5352,301.6380,0,U,46507,999,31393,.50166E-3,.23994E-3,0
GREENCUBE (IO-117),2022-080E,2026-06-01T11:09:37.753056,6.42583280,.00088692,70.1435,303.7143,293.3663,66.6064,0,U,53109,999,9105,0,-.3E-7,0
SITRO-AIS 5 (KATYS),2023-091L,2026-06-05T19:34:59.045088,15.29187010,.0012576,97.5059,220.6094,138.7571,221.4621,0,U,57176,999,16260,.56245E-3,.15907E-3,0
SITRO-AIS 6 (CHIRKIN),2023-091AC,2026-06-05T18:27:08.248608,15.25710384,.0012865,97.5069,219.7411,141.8474,218.3677,0,U,57192,999,16254,.46568E-3,.11831E-3,0
SITRO-AIS 8 (ANOKHIN),2023-091AD,2026-06-05T18:53:48.247872,15.31816083,.0011793,97.5057,222.1233,135.0197,225.2002,0,U,57193,999,16270,.53423E-3,.16383E-3,0
SITRO-AIS 7 (FARTUSHNIY),2023-091AE,2026-06-05T18:28:20.104032,15.25403009,.0012647,97.5066,219.5727,142.6683,217.5436,0,U,57194,999,16253,.43799E-3,.11019E-3,0
SITRO-AIS 10 (BURDAEV),2023-091AK,2026-06-05T19:13:58.996992,15.38166530,.0007995,97.5080,227.0753,113.4951,246.7135,0,U,57199,999,16301,.73387E-3,.2759E-3,0
SITRO-AIS 9 (SHCHUKIN),2023-091AM,2026-06-05T19:46:51.913344,15.37694740,.0008196,97.5079,226.8375,113.8134,246.3970,0,U,57201,999,16300,.67303E-3,.24904E-3,0
SITRO-AIS 12 (SMIRENNIY),2023-091AQ,2026-06-05T19:36:26.772192,15.37981491,.0007873,97.5092,227.2903,108.9163,251.2936,0,U,57204,999,16302,.7088E-3,.2648E-3,0
SITRO-AIS 11 (SHEFFER),2023-091AU,2026-06-05T18:26:34.518048,15.38390651,.0007739,97.5089,227.4798,109.0147,251.1937,0,U,57208,999,16303,.60481E-3,.22874E-3,0
SITRO-AIS 25,2024-039R,2026-06-05T20:27:09.088992,14.93448285,.0144998,95.3907,227.3037,8.5433,351.8210,0,U,59066,999,12303,.31834E-3,.4081E-4,0
SITRO-AIS 26,2024-039S,2026-06-05T20:26:54.466656,14.93245086,.0145347,95.3907,227.2036,9.1101,351.2708,0,U,59067,999,12302,.31362E-3,.4002E-4,0
SITRO-AIS 27,2024-039T,2026-06-05T19:48:37.658304,14.93665341,.01444,95.3913,227.4517,7.9224,352.4233,0,U,59068,999,12304,.28961E-3,.3726E-4,0
SITRO-AIS 28,2024-039U,2026-06-05T20:52:59.046240,14.93698500,.0144196,95.3912,227.5292,7.5918,352.7443,0,U,59071,999,12305,.32659E-3,.4208E-4,0
GRBBETA,2024-128C,2026-06-05T19:18:22.231008,15.06556764,.0042146,61.9902,256.2010,132.3196,228.1481,0,U,60237,999,10455,.3299E-3,.4786E-4,0
OOV-CUBE (TUBSAT-30),2024-128F,2026-06-05T19:26:41.884800,15.02722881,.004605,61.9953,265.2423,131.2256,229.2818,0,U,60240,999,10440,.24672E-3,.3173E-4,0
ROBUSTA-3A (MEDITERRANEE),2024-128J,2026-06-05T19:45:25.198848,15.11530085,.0042952,61.9861,248.4271,125.6799,234.8306,0,U,60243,999,10470,.62966E-3,.10757E-3,0
LASARSAT,2024-247Q,2026-06-03T22:10:16.072896,15.45494859,.00080478,44.9754,336.7002,258.6055,101.3931,0,U,62391,999,8126,.75515127E-3,.36882E-3,0
CROCUBE,2024-247T,2026-06-05T19:25:43.392000,15.47421048,.000805,44.9728,323.6298,271.6153,88.3815,0,U,62394,999,8158,.94488E-3,.49521E-3,0
FORESAIL-1 PRIME,2025-276DS,2026-06-05T11:10:45.405984,15.18591217,.0003586,97.4201,229.9519,127.4958,232.6603,0,U,66778,999,2862,.24747E-3,.5051E-4,0
KNACKSAT-2,1998-067XZ,2026-06-05T02:39:22.539456,15.58840087,.00107425,51.6316,355.1703,163.6532,196.4809,0,U,67683,999,1839,.6916844E-3,.54547E-3,0
